ANIK F1R                
1 28868U 05036A   22231.54075601 -.00000080  00000+0  00000+0 0  9991
2 28868   0.7156  93.2434 0002542  36.3148 285.6533  1.00272274 32435
INMARSAT 4-F2           
1 28899U 05044A   22231.08414376  .00000003  00000+0  00000+0 0  9993
2 28899   3.5473  37.9136 0002919 123.8101 259.8842  1.00273973 61508
QZS-1 (MICHIBIKI-1)     
1 37158U 10045A   22230.59795288 -.00000234  00000+0  00000+0 0  9994
2 37158  42.3959 132.5308 0764943 270.9368 275.1899  1.00241655 43718
GSAT-8                  
1 37605U 11022A   22230.96892316  .00000078  00000+0  00000+0 0  9993
2 37605   0.0134 122.2806 0003870 128.3217 120.5728  1.00273804 39196
LUCH 5A                 
1 37951U 11074B   22231.36687943 -.00000057  00000+0  00000+0 0  9995
2 37951   5.1722  96.5009 0005058  28.9458 141.2603  1.00269555 39177
SES-5                   
1 38652U 12036A   22229.62948983  .00000024  00000+0  00000+0 0  9996
2 38652   0.0506 290.0840 0001988 215.7755  51.6959  1.00272370 30457
GSAT-10                 
1 38779U 12051B   22231.51849762 -.00000171  00000+0  00000+0 0  9993
2 38779   0.0110 134.1822 0002026  64.7253  38.6099  1.00272218 36104
LUCH 5B                 
1 38977U 12061A   22231.35520138 -.00000143  00000+0  00000+0 0  9998
2 38977   7.4241  62.1376 0005932  73.3210 303.8201  1.00272245 36160
ASTRA 5B                
1 39617U 14011B   22231.29294031  .00000149  00000+0  00000+0 0  9995
2 39617   0.0578 302.5842 0004410 221.8918 300.1158  1.00275776 30659
LUCH 5V                 
1 39727U 14023A   22231.52085203 -.00000274  00000+0  00000+0 0  9995
2 39727   1.6429  76.2467 0003665  93.8961  79.8570  1.00268422 30341
GSAT-15                 
1 41028U 15065A   22228.05630387 -.00000272  00000+0  00000+0 0  9990
2 41028   0.0470 106.3299 0003339   9.7937 322.0701  1.00271420 24751
EUTELSAT 117 WEST B     
1 41589U 16038B   22230.97643192 -.00000018  00000+0  00000+0 0  9993
2 41589   0.0103 236.2258 0000173 172.4325 153.1605  1.00272784 22653
SES-15                  
1 42709U 17026A   22231.18615615  .00000053  00000+0  00000+0 0  9997
2 42709   0.0275 349.1895 0000677 198.4004  77.7781  1.00276235 20121
QZS-2 (MICHIBIKI-2)     
1 42738U 17028A   22231.41155153 -.00000140  00000+0  00000+0 0  9991
2 42738  41.6703 263.2804 0754369 269.8910  83.8454  1.00270038 19138
QZS-3 (MICHIBIKI-3)     
1 42917U 17048A   22231.51789551 -.00000354  00000+0  00000+0 0  9995
2 42917   0.0664 218.0653 0001175 326.6237  96.6317  1.00271690 18242
QZS-4 (MICHIBIKI-4)     
1 42965U 17062A   22231.50091355 -.00000359  00000+0  00000+0 0  9996
2 42965  40.7558   1.3095 0747131 269.0317  15.3711  1.00290508 17793
GALAXY 30 (G-30)        
1 46114U 20056C   22231.52072228  .00000031  00000+0  00000+0 0  9999
2 46114   0.0137 127.2620 0002008  32.7201 230.3120  1.00272828  7271
