[{"OBJECT_NAME":"CRE (WAAS\/PRN 138)","OBJECT_ID":"2005-036A","EPOCH":"2022-08-19T12:58:41.319264","MEAN_MOTION":1.00272274,"ECCENTRICITY":0.0002542,"INCLINATION":0.7156,"RA_OF_ASC_NODE":93.2434,"ARG_OF_PERICENTER":36.3148,"MEAN_ANOMALY":285.6533,"EPHEMERIS_TYPE":0,"CLASSIFICATION_TYPE":"U","NORAD_CAT_ID":28868,"ELEMENT_SET_NO":999,"REV_AT_EPOCH":3243,"BSTAR":0,"MEAN_MOTION_DOT":-8.0e-7,"MEAN_MOTION_DDOT":0},{"OBJECT_NAME":"IOR-W (EGNOS\/PRN 126)","OBJECT_ID":"2005-044A","EPOCH":"2022-08-19T02:01:10.020864","MEAN_MOTION":1.00273973,"ECCENTRICITY":0.0002919,"INCLINATION":3.5473,"RA_OF_ASC_NODE":37.9136,"ARG_OF_PERICENTER":123.8101,"MEAN_ANOMALY":259.8842,"EPHEMERIS_TYPE":0,"CLASSIFICATION_TYPE":"U","NORAD_CAT_ID":28899,"ELEMENT_SET_NO":999,"REV_AT_EPOCH":6150,"BSTAR":0,"MEAN_MOTION_DOT":3.0e-8,"MEAN_MOTION_DDOT":0},{"OBJECT_NAME":"QZS-1 (QZSS\/PRN 183)","OBJECT_ID":"2010-045A","EPOCH":"2022-08-18T14:21:03.128832","MEAN_MOTION":1.00241655,"ECCENTRICITY":0.0764943,"INCLINATION":42.3959,"RA_OF_ASC_NODE":132.5308,"ARG_OF_PERICENTER":270.9368,"MEAN_ANOMALY":275.1899,"EPHEMERIS_TYPE":0,"CLASSIFICATION_TYPE":"U","NORAD_CAT_ID":37158,"ELEMENT_SET_NO":999,"REV_AT_EPOCH":4371,"BSTAR":0,"MEAN_MOTION_DOT":-2.34e-6,"MEAN_MOTION_DDOT":0},{"OBJECT_NAME":"GSAT-8 (GAGAN\/PRN 127)","OBJECT_ID":"2011-022A","EPOCH":"2022-08-18T23:15:14.961024","MEAN_MOTION":1.00273804,"ECCENTRICITY":0.000387,"INCLINATION":0.0134,"RA_OF_ASC_NODE":122.2806,"ARG_OF_PERICENTER":128.3217,"MEAN_ANOMALY":120.5728,"EPHEMERIS_TYPE":0,"CLASSIFICATION_TYPE":"U","NORAD_CAT_ID":37605,"ELEMENT_SET_NO":999,"REV_AT_EPOCH":3919,"BSTAR":0,"MEAN_MOTION_DOT":7.8e-7,"MEAN_MOTION_DDOT":0},{"OBJECT_NAME":"LUCH 5A (SDCM\/PRN 140)","OBJECT_ID":"2011-074B","EPOCH":"2022-08-19T08:48:18.382752","MEAN_MOTION":1.00269555,"ECCENTRICITY":0.0005058,"INCLINATION":5.1722,"RA_OF_ASC_NODE":96.5009,"ARG_OF_PERICENTER":28.9458,"MEAN_ANOMALY":141.2603,"EPHEMERIS_TYPE":0,"CLASSIFICATION_TYPE":"U","NORAD_CAT_ID":37951,"ELEMENT_SET_NO":999,"REV_AT_EPOCH":3917,"BSTAR":0,"MEAN_MOTION_DOT":-5.7e-7,"MEAN_MOTION_DDOT":0},{"OBJECT_NAME":"SES-5 (EGNOS\/PRN 136)","OBJECT_ID":"2012-036A","EPOCH":"2022-08-17T15:06:27.921312","MEAN_MOTION":1.0027237,"ECCENTRICITY":0.0001988,"INCLINATION":0.0506,"RA_OF_ASC_NODE":290.084,"ARG_OF_PERICENTER":215.7755,"MEAN_ANOMALY":51.6959,"EPHEMERIS_TYPE":0,"CLASSIFICATION_TYPE":"U","NORAD_CAT_ID":38652,"ELEMENT_SET_NO":999,"REV_AT_EPOCH":3045,"BSTAR":0,"MEAN_MOTION_DOT":2.4e-7,"MEAN_MOTION_DDOT":0},{"OBJECT_NAME":"GSAT-10 (GAGAN\/PRN 128)","OBJECT_ID":"2012-051B","EPOCH":"2022-08-19T12:26:38.194368","MEAN_MOTION":1.00272218,"ECCENTRICITY":0.0002026,"INCLINATION":0.011,"RA_OF_ASC_NODE":134.1822,"ARG_OF_PERICENTER":64.7253,"MEAN_ANOMALY":38.6099,"EPHEMERIS_TYPE":0,"CLASSIFICATION_TYPE":"U","NORAD_CAT_ID":38779,"ELEMENT_SET_NO":999,"REV_AT_EPOCH":3610,"BSTAR":0,"MEAN_MOTION_DOT":-1.71e-6,"MEAN_MOTION_DDOT":0},{"OBJECT_NAME":"LUCH 5B (SDCM\/PRN 125)","OBJECT_ID":"2012-061A","EPOCH":"2022-08-19T08:31:29.399232","MEAN_MOTION":1.00272245,"ECCENTRICITY":0.0005932,"INCLINATION":7.4241,"RA_OF_ASC_NODE":62.1376,"ARG_OF_PERICENTER":73.321,"MEAN_ANOMALY":303.8201,"EPHEMERIS_TYPE":0,"CLASSIFICATION_TYPE":"U","NORAD_CAT_ID":38977,"ELEMENT_SET_NO":999,"REV_AT_EPOCH":3616,"BSTAR":0,"MEAN_MOTION_DOT":-1.43e-6,"MEAN_MOTION_DDOT":0},{"OBJECT_NAME":"ASTRA 5B (EGNOS\/PRN 123)","OBJECT_ID":"2014-011B","EPOCH":"2022-08-19T07:01:50.042784","MEAN_MOTION":1.00275776,"ECCENTRICITY":0.000441,"INCLINATION":0.0578,"RA_OF_ASC_NODE":302.5842,"ARG_OF_PERICENTER":221.8918,"MEAN_ANOMALY":300.1158,"EPHEMERIS_TYPE":0,"CLASSIFICATION_TYPE":"U","NORAD_CAT_ID":39617,"ELEMENT_SET_NO":999,"REV_AT_EPOCH":3065,"BSTAR":0,"MEAN_MOTION_DOT":1.49e-6,"MEAN_MOTION_DDOT":0},{"OBJECT_NAME":"LUCH 5V (SDCM\/PRN 141)","OBJECT_ID":"2014-023A","EPOCH":"2022-08-19T12:30:01.615392","MEAN_MOTION":1.00268422,"ECCENTRICITY":0.0003665,"INCLINATION":1.6429,"RA_OF_ASC_NODE":76.2467,"ARG_OF_PERICENTER":93.8961,"MEAN_ANOMALY":79.857,"EPHEMERIS_TYPE":0,"CLASSIFICATION_TYPE":"U","NORAD_CAT_ID":39727,"ELEMENT_SET_NO":999,"REV_AT_EPOCH":3034,"BSTAR":0,"MEAN_MOTION_DOT":-2.74e-6,"MEAN_MOTION_DDOT":0},{"OBJECT_NAME":"GSAT-15 (GAGAN\/PRN 139)","OBJECT_ID":"2015-065A","EPOCH":"2022-08-16T01:21:04.654368","MEAN_MOTION":1.0027142,"ECCENTRICITY":0.0003339,"INCLINATION":0.047,"RA_OF_ASC_NODE":106.3299,"ARG_OF_PERICENTER":9.7937,"MEAN_ANOMALY":322.0701,"EPHEMERIS_TYPE":0,"CLASSIFICATION_TYPE":"U","NORAD_CAT_ID":41028,"ELEMENT_SET_NO":999,"REV_AT_EPOCH":2475,"BSTAR":0,"MEAN_MOTION_DOT":-2.72e-6,"MEAN_MOTION_DDOT":0},{"OBJECT_NAME":"E 117 W B (WAAS\/PRN 131)","OBJECT_ID":"2016-038B","EPOCH":"2022-08-18T23:26:03.717888","MEAN_MOTION":1.00272784,"ECCENTRICITY":1.73e-5,"INCLINATION":0.0103,"RA_OF_ASC_NODE":236.2258,"ARG_OF_PERICENTER":172.4325,"MEAN_ANOMALY":153.1605,"EPHEMERIS_TYPE":0,"CLASSIFICATION_TYPE":"U","NORAD_CAT_ID":41589,"ELEMENT_SET_NO":999,"REV_AT_EPOCH":2265,"BSTAR":0,"MEAN_MOTION_DOT":-1.8e-7,"MEAN_MOTION_DDOT":0},{"OBJECT_NAME":"SES-15 (WAAS\/PRN 133)","OBJECT_ID":"2017-026A","EPOCH":"2022-08-19T04:28:03.891360","MEAN_MOTION":1.00276235,"ECCENTRICITY":6.77e-5,"INCLINATION":0.0275,"RA_OF_ASC_NODE":349.1895,"ARG_OF_PERICENTER":198.4004,"MEAN_ANOMALY":77.7781,"EPHEMERIS_TYPE":0,"CLASSIFICATION_TYPE":"U","NORAD_CAT_ID":42709,"ELEMENT_SET_NO":999,"REV_AT_EPOCH":2012,"BSTAR":0,"MEAN_MOTION_DOT":5.3e-7,"MEAN_MOTION_DDOT":0},{"OBJECT_NAME":"QZS-2 (QZSS\/PRN 184)","OBJECT_ID":"2017-028A","EPOCH":"2022-08-19T09:52:38.052192","MEAN_MOTION":1.00270038,"ECCENTRICITY":0.0754369,"INCLINATION":41.6703,"RA_OF_ASC_NODE":263.2804,"ARG_OF_PERICENTER":269.891,"MEAN_ANOMALY":83.8454,"EPHEMERIS_TYPE":0,"CLASSIFICATION_TYPE":"U","NORAD_CAT_ID":42738,"ELEMENT_SET_NO":999,"REV_AT_EPOCH":1913,"BSTAR":0,"MEAN_MOTION_DOT":-1.4e-6,"MEAN_MOTION_DDOT":0},{"OBJECT_NAME":"QZS-3 (QZSS\/PRN 189)","OBJECT_ID":"2017-048A","EPOCH":"2022-08-19T12:25:46.172064","MEAN_MOTION":1.0027169,"ECCENTRICITY":0.0001175,"INCLINATION":0.0664,"RA_OF_ASC_NODE":218.0653,"ARG_OF_PERICENTER":326.6237,"MEAN_ANOMALY":96.6317,"EPHEMERIS_TYPE":0,"CLASSIFICATION_TYPE":"U","NORAD_CAT_ID":42917,"ELEMENT_SET_NO":999,"REV_AT_EPOCH":1824,"BSTAR":0,"MEAN_MOTION_DOT":-3.54e-6,"MEAN_MOTION_DDOT":0},{"OBJECT_NAME":"QZS-4 (QZSS\/PRN 185)","OBJECT_ID":"2017-062A","EPOCH":"2022-08-19T12:01:18.930720","MEAN_MOTION":1.00290508,"ECCENTRICITY":0.0747131,"INCLINATION":40.7558,"RA_OF_ASC_NODE":1.3095,"ARG_OF_PERICENTER":269.0317,"MEAN_ANOMALY":15.3711,"EPHEMERIS_TYPE":0,"CLASSIFICATION_TYPE":"U","NORAD_CAT_ID":42965,"ELEMENT_SET_NO":999,"REV_AT_EPOCH":1779,"BSTAR":0,"MEAN_MOTION_DOT":-3.59e-6,"MEAN_MOTION_DDOT":0},{"OBJECT_NAME":"GALAXY 30 (WAAS\/PRN 135)","OBJECT_ID":"2020-056C","EPOCH":"2022-08-19T12:29:50.404992","MEAN_MOTION":1.00272828,"ECCENTRICITY":0.0002008,"INCLINATION":0.0137,"RA_OF_ASC_NODE":127.262,"ARG_OF_PERICENTER":32.7201,"MEAN_ANOMALY":230.312,"EPHEMERIS_TYPE":0,"CLASSIFICATION_TYPE":"U","NORAD_CAT_ID":46114,"ELEMENT_SET_NO":999,"REV_AT_EPOCH":727,"BSTAR":0,"MEAN_MOTION_DOT":3.1e-7,"MEAN_MOTION_DDOT":0}]